#cP2024  2 25 12  0  0.00000000     577 d+D   IGS20 EXT AIUB
## 2303  43200.00000000   300.00000000 60365 0.5000000000000
+   79   G01G02G03G04G05G06G07G08G09G10G11G12G13G14G15G16G17
+        G18G19G20G21G22G23G24G25G26G27G28G29G30G31G32R01R02
+        R03R04R05R07R08R09R11R12R13R14R15R16R17R18R19R20R21
+        R22R24R26E02E03E04E05E07E08E09E10E11E12E13E14E15E18
+        E19E21E24E25E26E27E30E31E33E34E36  0  0  0  0  0  0
++         7  7  6  6  7  6  7  7  6  5  7  7  7  5  7  7  7
++         7  8  7  7  7  6  7  6  6  6  6  7  6  7  6  8  7
++         8  8  7  8  8  7  6  6  7  6  7  7  8  7  8  9  7
++         7  7  7  6  6  7  6  6  6  7  7  6  6  6  7  6  7
++         7  6  6  5  6  6  6  6  7  6  7  0  0  0  0  0  0
%c M  cc GPS ccc cccc cccc cccc cccc ccccc ccccc ccccc ccccc
%c cc cc ccc ccc cccc cccc cccc cccc ccccc ccccc ccccc ccccc
%f  1.2500000  1.025000000  0.00000000000  0.000000000000000
%f  0.0000000  0.000000000  0.00000000000  0.000000000000000
%i    0    0    0    0      0      0      0      0         0
%i    0    0    0    0      0      0      0      0         0
/* Center for Orbit Determination in Europe (CODE)          
/* Ultra-rapid GRE orbits starting year-day 24056 12 hour   
/* Observed/predicted: 25/23 hours (data used up to 057M)   
/* PCV:IGS20      OL/AL:FES2014b NONE     YN ORB:CoN CLK:BRD
*  2024  2 26  9  0  0.00000000
PG01 -13458.198987   5223.982182  21945.462074    171.174381
PG02 -16835.318102  -3422.263251  20816.303504   -479.485958
PG03 -20719.277118   8523.717761  14030.087491    217.066991
PG04 -25347.179149   -901.690336  -8094.906006    301.034222
PG05  15956.468247   3538.504442 -21124.821696   -163.230834
PG06   5381.318848  25751.031318   3251.083228    391.901223
PG07  -8146.263599  17078.623159 -17950.567591    -70.934442
PG08 -26172.998404  -5694.056679   -846.773908     11.416478
PG09 -17173.073489   9452.798391 -18028.931300    104.962064
PG10   7158.148850 -21410.495168  13933.646909      1.158212
PG11  11870.079669  22151.489507  -8642.278924   -588.422549
PG12  21310.176015  -6561.760707  14094.569753   -481.683935
PG13  21449.376198  13905.557766  -7828.622624    629.002809
PG14 -10819.652684  21815.530034  10396.664735    335.687057
PG15  26472.185320   3090.204949  -1511.296202    131.653046
PG16 -11723.586979 -10037.716847 -21971.289197   -354.231450
PG17  -4189.540789  14614.474329  22201.981224    715.726732
PG18   7391.354194 -18091.893204 -17883.945615   -563.757215
PG19   6729.963382  16517.162619  19610.573846    445.968149
PG20   7356.781650  15349.090126 -20365.922468    386.077191
PG21 -17711.998422  -9629.477320  18249.235866    133.542555
PG22  -4755.281581  20296.703361  17052.523145     25.064935
PG23  16151.327548 -20830.557785   2306.380053    164.374784
PG24  17515.108450   5918.518673  18800.849707   -437.775954
PG25  19964.525260 -16231.088950   5643.686532    489.712129
PG26  -3289.982976 -18426.882579 -18855.070419    186.101292
PG27 -20123.485890 -13073.184450 -12122.685174     -7.265531
PG28  -4473.948552 -25504.112225   5903.524127   -144.044847
PG29  19212.361324  -6391.347486 -17293.778513   -606.162459
PG30   -604.548098  24228.985639 -10415.950321   -427.554571
PG31  -9951.903206 -24064.417901  -4184.825624   -227.881539
PG32   -512.515943 -15610.727026  21704.801567   -613.512557
PR01  -4523.805896  11638.507575 -22234.300702     78.154338
PR02  13855.955681   7343.531180 -20046.065606    -22.530909
PR03  24659.583170  -1029.554224  -6270.785635     95.269792
PR04  21692.992664  -8284.687492  10575.145281    225.087902
PR05   7101.160144 -11263.358948  21768.205112    127.504299
PR07 -24896.991613   1383.646244   5544.402656     76.664631
PR08 -21558.463032   8525.800934 -10613.282496    -74.537873
PR09  -4529.309899 -16178.769482 -19210.927888    172.121822
PR11 -13187.634619  16637.853679 -14122.770209     33.106957
PR12  -6567.047071  24203.114661   4728.209174     37.163505
PR13   2718.083385  17943.968367  17906.363467    -44.727778
PR14  12005.758091  -1034.949167  22488.923856     26.100341
PR15  13186.902469 -17651.208489  12868.928974     81.863913
PR16   6634.174304 -24247.816108  -4422.591585     23.566808
PR17  17305.052091   9846.768138 -15955.953195     64.314014
PR18   9450.249978  -4881.381245 -23165.599590    129.302554
PR19  -1323.882324 -16381.404477 -19508.172696   -267.243087
PR20 -14642.192469 -20873.014544  -1374.865055   -108.862698
PR21 -17112.967825  -9800.209880  16169.161892    -79.982634
PR22  -9265.851312   5795.694336  23075.769190    109.963276
PR24  15674.431473  20113.554293    826.169611    -45.458451
PR26 -22005.900016   8348.117224  -9781.086577   -196.286930
PE02 -23613.423143  15551.194457  -8807.931025    106.520116
PE03 -24645.216146   5146.362642 -15558.025249    -96.364802
PE04   6312.060961 -15858.321315  24193.659326   -336.197537
PE05 -28308.772255  -8407.438509   2028.133795   4723.658090
PE07  15067.098633  17212.622150 -18781.394163   -105.787753
PE08  -7070.726395  15475.427252 -24217.688584   -229.862044
PE09 -14957.144976 -17126.668117  18948.643031   -349.780917
PE10  -4408.689572 -28665.616458  -5929.681875   -604.875232
PE11 -10921.617609 -27137.166086   4592.509495   3221.442109
PE12   2189.399854 -25814.895172 -14339.826364   -922.849766
PE13  10565.284394  27359.299700  -3934.938160    -20.312223
PE14  -4090.796548  15723.257348  19210.460416 999999.999999
PE15  -2520.265840  25485.211981  14840.087895    -87.952346
PE18  15402.908201 -15208.920897 -22502.075803 999999.999999
PE19  25891.581347  -3438.496046  13936.474521   -541.960193
PE21  19763.624953   1403.805554  21979.905200   -580.972464
PE24  -3917.005004 -18582.704228 -22720.746485   -619.333666
PE25 -19560.542239  -1783.141215 -22150.618569      1.388594
PE26  17433.588311  12530.091302 -20365.713778    379.830848
PE27   4248.210866  18319.561511  22855.114329   -284.275486
PE30 -13825.054907  24181.594636  10022.314728    -36.107677
PE31  13567.435031 -24222.916205 -10254.583300    -16.884923
PE33  14143.984470  -8115.696399 -24697.454262      8.169392
PE34 -13909.403375   8743.151002  24622.002635    -96.756842
PE36 -17261.507492 -13226.531547  20095.462080   -191.237488
EOF
